{
  "type": "FeatureCollection",
  "features": [
    {
      "type": "Feature",
      "properties": {
        "norad_id": 40889,
        "name": "GSAT0205 (GALILEO 9)",
        "group": "galileo",
        "lat": -30.58287881194226,
        "lon": 71.09661919028295,
        "alt_km": 23243.999260404365,
        "timestamp": "2025-12-16T13:52:37.786305+00:00",
        "meta_object_name": "GSAT0205 (GALILEO 9)",
        "meta_object_id": "2015-045A",
        "meta_epoch": "2025-12-13T06:56:57.536448",
        "meta_mean_motion": 1.70473165,
        "meta_eccentricity": 0.00060191,
        "meta_inclination": 55.0031,
        "meta_ra_of_asc_node": 226.743,
        "meta_arg_of_pericenter": 39.8542,
        "meta_mean_anomaly": 320.2702,
        "meta_ephemeris_type": 0,
        "meta_classification_type": "U",
        "meta_norad_cat_id": 40889,
        "meta_element_set_no": 999,
        "meta_rev_at_epoch": 6384,
        "meta_bstar": 0,
        "meta_mean_motion_dot": 2.2e-07,
        "meta_mean_motion_ddot": 0,
        "tle_line1": "1 40889U 15045A   25347.28955482  .00000022  00000+0  00000+0 0  9990",
        "tle_line2": "2 40889  55.0031 226.7430 0006019  39.8542 320.2702  1.70473165 63847"
      },
      "geometry": {
        "type": "Point",
        "coordinates": [
          71.09661919028295,
          -30.58287881194226
        ]
      }
    },
    {
      "type": "Feature",
      "properties": {
        "norad_id": 40890,
        "name": "GSAT0206 (GALILEO 10)",
        "group": "galileo",
        "lat": 54.398410865569474,
        "lon": -55.47999821046518,
        "alt_km": 23207.485234541306,
        "timestamp": "2025-12-16T13:52:37.786316+00:00",
        "meta_object_name": "GSAT0206 (GALILEO 10)",
        "meta_object_id": "2015-045B",
        "meta_epoch": "2025-12-14T16:24:04.185792",
        "meta_mean_motion": 1.70473242,
        "meta_eccentricity": 0.00039786,
        "meta_inclination": 55.0018,
        "meta_ra_of_asc_node": 226.6995,
        "meta_arg_of_pericenter": 38.8814,
        "meta_mean_anomaly": 321.2332,
        "meta_ephemeris_type": 0,
        "meta_classification_type": "U",
        "meta_norad_cat_id": 40890,
        "meta_element_set_no": 999,
        "meta_rev_at_epoch": 6389,
        "meta_bstar": 0,
        "meta_mean_motion_dot": 3.4e-07,
        "meta_mean_motion_ddot": 0,
        "tle_line1": "1 40890U 15045B   25348.68338178  .00000034  00000+0  00000+0 0  9997",
        "tle_line2": "2 40890  55.0018 226.6995 0003978  38.8814 321.2332  1.70473242 63892"
      },
      "geometry": {
        "type": "Point",
        "coordinates": [
          -55.47999821046518,
          54.398410865569474
        ]
      }
    },
    {
      "type": "Feature",
      "properties": {
        "norad_id": 41174,
        "name": "GSAT0209 (GALILEO 12)",
        "group": "galileo",
        "lat": -16.62736740371629,
        "lon": 94.51965931346332,
        "alt_km": 23217.381397602236,
        "timestamp": "2025-12-16T13:52:37.786328+00:00",
        "meta_object_name": "GSAT0209 (GALILEO 12)",
        "meta_object_id": "2015-079A",
        "meta_epoch": "2025-12-13T16:16:46.046208",
        "meta_mean_motion": 1.70474514,
        "meta_eccentricity": 0.00024314,
        "meta_inclination": 55.7133,
        "meta_ra_of_asc_node": 106.3552,
        "meta_arg_of_pericenter": 349.5598,
        "meta_mean_anomaly": 10.4024,
        "meta_ephemeris_type": 0,
        "meta_classification_type": "U",
        "meta_norad_cat_id": 41174,
        "meta_element_set_no": 999,
        "meta_rev_at_epoch": 6161,
        "meta_bstar": 0,
        "meta_mean_motion_dot": -1e-08,
        "meta_mean_motion_ddot": 0,
        "tle_line1": "1 41174U 15079A   25347.67831072 -.00000001  00000+0  00000+0 0  9994",
        "tle_line2": "2 41174  55.7133 106.3552 0002431 349.5598  10.4024  1.70474514 61616"
      },
      "geometry": {
        "type": "Point",
        "coordinates": [
          94.51965931346332,
          -16.62736740371629
        ]
      }
    },
    {
      "type": "Feature",
      "properties": {
        "norad_id": 41175,
        "name": "GSAT0208 (GALILEO 11)",
        "group": "galileo",
        "lat": -20.17011585134959,
        "lon": -59.241026959958646,
        "alt_km": 23229.910558735275,
        "timestamp": "2025-12-16T13:52:37.786338+00:00",
        "meta_object_name": "GSAT0208 (GALILEO 11)",
        "meta_object_id": "2015-079B",
        "meta_epoch": "2025-12-12T17:24:26.771040",
        "meta_mean_motion": 1.70474307,
        "meta_eccentricity": 0.00018806,
        "meta_inclination": 55.7111,
        "meta_ra_of_asc_node": 106.3784,
        "meta_arg_of_pericenter": 358.3144,
        "meta_mean_anomaly": 1.6545,
        "meta_ephemeris_type": 0,
        "meta_classification_type": "U",
        "meta_norad_cat_id": 41175,
        "meta_element_set_no": 999,
        "meta_rev_at_epoch": 6201,
        "meta_bstar": 0,
        "meta_mean_motion_dot": 4e-08,
        "meta_mean_motion_ddot": 0,
        "tle_line1": "1 41175U 15079B   25346.72530985  .00000004  00000+0  00000+0 0  9991",
        "tle_line2": "2 41175  55.7111 106.3784 0001880 358.3144   1.6545  1.70474307 62017"
      },
      "geometry": {
        "type": "Point",
        "coordinates": [
          -59.241026959958646,
          -20.17011585134959
        ]
      }
    },
    {
      "type": "Feature",
      "properties": {
        "norad_id": 41549,
        "name": "GSAT0211 (GALILEO 14)",
        "group": "galileo",
        "lat": 39.935099371015475,
        "lon": 11.083574756225909,
        "alt_km": 23221.925233590013,
        "timestamp": "2025-12-16T13:52:37.786350+00:00",
        "meta_object_name": "GSAT0211 (GALILEO 14)",
        "meta_object_id": "2016-030A",
        "meta_epoch": "2025-12-14T00:32:28.498848",
        "meta_mean_motion": 1.70473201,
        "meta_eccentricity": 0.000407,
        "meta_inclination": 55.1518,
        "meta_ra_of_asc_node": 226.7881,
        "meta_arg_of_pericenter": 16.5595,
        "meta_mean_anomaly": 343.5367,
        "meta_ephemeris_type": 0,
        "meta_classification_type": "U",
        "meta_norad_cat_id": 41549,
        "meta_element_set_no": 999,
        "meta_rev_at_epoch": 5951,
        "meta_bstar": 0,
        "meta_mean_motion_dot": 2.8e-07,
        "meta_mean_motion_ddot": 0,
        "tle_line1": "1 41549U 16030A   25348.02255207  .00000028  00000+0  00000+0 0  9996",
        "tle_line2": "2 41549  55.1518 226.7881 0004070  16.5595 343.5367  1.70473201 59512"
      },
      "geometry": {
        "type": "Point",
        "coordinates": [
          11.083574756225909,
          39.935099371015475
        ]
      }
    },
    {
      "type": "Feature",
      "properties": {
        "norad_id": 41550,
        "name": "GSAT0210 (GALILEO 13)",
        "group": "galileo",
        "lat": -23.84713027189861,
        "lon": -151.19558755956834,
        "alt_km": 23225.594573349288,
        "timestamp": "2025-12-16T13:52:37.786361+00:00",
        "meta_object_name": "GSAT0210 (GALILEO 13)",
        "meta_object_id": "2016-030B",
        "meta_epoch": "2025-12-14T06:43:07.791456",
        "meta_mean_motion": 1.70473679,
        "meta_eccentricity": 9.538e-05,
        "meta_inclination": 55.1512,
        "meta_ra_of_asc_node": 226.7791,
        "meta_arg_of_pericenter": 236.3511,
        "meta_mean_anomaly": 123.7237,
        "meta_ephemeris_type": 0,
        "meta_classification_type": "U",
        "meta_norad_cat_id": 41550,
        "meta_element_set_no": 999,
        "meta_rev_at_epoch": 5951,
        "meta_bstar": 0,
        "meta_mean_motion_dot": 3e-07,
        "meta_mean_motion_ddot": 0,
        "tle_line1": "1 41550U 16030B   25348.27995129  .00000030  00000+0  00000+0 0  9992",
        "tle_line2": "2 41550  55.1512 226.7791 0000953 236.3511 123.7237  1.70473679 59517"
      },
      "geometry": {
        "type": "Point",
        "coordinates": [
          -151.19558755956834,
          -23.84713027189861
        ]
      }
    },
    {
      "type": "Feature",
      "properties": {
        "norad_id": 41859,
        "name": "GSAT0207 (GALILEO 15)",
        "group": "galileo",
        "lat": 16.545184600323513,
        "lon": -85.69746263394148,
        "alt_km": 23226.541386208926,
        "timestamp": "2025-12-16T13:52:37.786372+00:00",
        "meta_object_name": "GSAT0207 (GALILEO 15)",
        "meta_object_id": "2016-069A",
        "meta_epoch": "2025-12-13T09:14:27.730752",
        "meta_mean_motion": 1.70474447,
        "meta_eccentricity": 0.00022423,
        "meta_inclination": 55.3826,
        "meta_ra_of_asc_node": 106.2323,
        "meta_arg_of_pericenter": 321.9482,
        "meta_mean_anomaly": 38.0041,
        "meta_ephemeris_type": 0,
        "meta_classification_type": "U",
        "meta_norad_cat_id": 41859,
        "meta_element_set_no": 999,
        "meta_rev_at_epoch": 5623,
        "meta_bstar": 0,
        "meta_mean_motion_dot": 0,
        "meta_mean_motion_ddot": 0,
        "tle_line1": "1 41859U 16069A   25347.38504318  .00000000  00000+0  00000+0 0  9990",
        "tle_line2": "2 41859  55.3826 106.2323 0002242 321.9482  38.0041  1.70474447 56234"
      },
      "geometry": {
        "type": "Point",
        "coordinates": [
          -85.69746263394148,
          16.545184600323513
        ]
      }
    }
  ]
}